{"type": "FeatureCollection", "features": [ {"type": "Feature", "properties": {"norad_id": 64901, "name": "CO3D 4", "group": "resource", "lat": -16.496856686933175, "lon": 58.546393221375155, "alt_km": 510.5979613711852, "timestamp": "2025-12-05T20:43:01.727779+00:00", "meta": {"OBJECT_NAME": "CO3D 4", "OBJECT_ID": "2025-156C", "EPOCH": "2025-12-01T18:50:45.474720", "MEAN_MOTION": 15.20204195, "ECCENTRICITY": 0.00012108, "INCLINATION": 97.4354, "RA_OF_ASC_NODE": 52.3098, "ARG_OF_PERICENTER": 238.3057, "MEAN_ANOMALY": 121.806, "EPHEMERIS_TYPE": 0, "CLASSIFICATION_TYPE": "U", "NORAD_CAT_ID": 64901, "ELEMENT_SET_NO": 999, "REV_AT_EPOCH": 1954, "BSTAR": -1.4420799e-05, "MEAN_MOTION_DOT": -3.8e-06, "MEAN_MOTION_DDOT": 0}, "tle": {"line1": "1 64901U 25156C   25335.78524855 -.00000380  00000+0 -14421-4 0  9999", "line2": "2 64901  97.4354  52.3098 0001210 238.3057 121.8060 15.20204195 19549"}}, "geometry": {"type": "Point", "coordinates": [58.546393221375155, -16.496856686933175]}}, {"type": "Feature", "properties": {"norad_id": 64902, "name": "CO3D 2", "group": "resource", "lat": 13.94880895235096, "lon": -121.91274314185536, "alt_km": 506.06964869799776, "timestamp": "2025-12-05T20:43:01.727789+00:00", "meta": {"OBJECT_NAME": "CO3D 2", "OBJECT_ID": "2025-156D", "EPOCH": "2025-12-05T07:21:07.929792", "MEAN_MOTION": 15.20197425, "ECCENTRICITY": 8.814e-05, "INCLINATION": 97.4349, "RA_OF_ASC_NODE": 55.6796, "ARG_OF_PERICENTER": 100.4245, "MEAN_ANOMALY": 259.709, "EPHEMERIS_TYPE": 0, "CLASSIFICATION_TYPE": "U", "NORAD_CAT_ID": 64902, "ELEMENT_SET_NO": 999, "REV_AT_EPOCH": 2007, "BSTAR": 0.00057640647, "MEAN_MOTION_DOT": 0.00012429, "MEAN_MOTION_DDOT": 0}, "tle": {"line1": "1 64902U 25156D   25339.30634178  .00012429  00000+0  57641-3 0  9997", "line2": "2 64902  97.4349  55.6796 0000881 100.4245 259.7090 15.20197425 20077"}}, "geometry": {"type": "Point", "coordinates": [-121.91274314185536, 13.94880895235096]}}, {"type": "Feature", "properties": {"norad_id": 64903, "name": "CO3D 1", "group": "resource", "lat": 14.781594734771177, "lon": -121.79680927252204, "alt_km": 505.89120788521905, "timestamp": "2025-12-05T20:43:01.727800+00:00", "meta": {"OBJECT_NAME": "CO3D 1", "OBJECT_ID": "2025-156E", "EPOCH": "2025-12-05T07:21:21.115296", "MEAN_MOTION": 15.20195462, "ECCENTRICITY": 9.105e-05, "INCLINATION": 97.435, "RA_OF_ASC_NODE": 55.6797, "ARG_OF_PERICENTER": 104.883, "MEAN_ANOMALY": 255.2506, "EPHEMERIS_TYPE": 0, "CLASSIFICATION_TYPE": "U", "NORAD_CAT_ID": 64903, "ELEMENT_SET_NO": 999, "REV_AT_EPOCH": 2007, "BSTAR": 0.00053025373, "MEAN_MOTION_DOT": 0.00011427, "MEAN_MOTION_DDOT": 0}, "tle": {"line1": "1 64903U 25156E   25339.30649439  .00011427  00000+0  53025-3 0  9993", "line2": "2 64903  97.4350  55.6797 0000910 104.8830 255.2506 15.20195462 20074"}}, "geometry": {"type": "Point", "coordinates": [-121.79680927252204, 14.781594734771177]}}, {"type": "Feature", "properties": {"norad_id": 66514, "name": "SENTINEL-6B", "group": "resource", "lat": 22.42648340401782, "lon": -172.66033551712923, "alt_km": 1320.5498789876328, "timestamp": "2025-12-05T20:43:01.727810+00:00", "meta": {"OBJECT_NAME": "SENTINEL-6B", "OBJECT_ID": "2025-264A", "EPOCH": "2025-12-05T05:39:22.607712", "MEAN_MOTION": 12.8587775, "ECCENTRICITY": 0.0011549, "INCLINATION": 66.0392, "RA_OF_ASC_NODE": 178.08, "ARG_OF_PERICENTER": 268.4163, "MEAN_ANOMALY": 91.5532, "EPHEMERIS_TYPE": 0, "CLASSIFICATION_TYPE": "U", "NORAD_CAT_ID": 66514, "ELEMENT_SET_NO": 999, "REV_AT_EPOCH": 232, "BSTAR": 0.00029277117, "MEAN_MOTION_DOT": 1e-07, "MEAN_MOTION_DDOT": 0}, "tle": {"line1": "1 66514U 25264A   25339.23567833  .00000010  00000+0  29277-3 0  9990", "line2": "2 66514  66.0392 178.0800 0011549 268.4163  91.5532 12.85877750  2326"}}, "geometry": {"type": "Point", "coordinates": [-172.66033551712923, 22.42648340401782]}}]}